{
  "type": "FeatureCollection",
  "features": [
    {
      "type": "Feature",
      "properties": {
        "norad_id": 41026,
        "name": "YAOGAN-28",
        "group": "resource",
        "lat": 64.8240132417477,
        "lon": -30.448340008738533,
        "alt_km": 477.77100782490925,
        "timestamp": "2025-12-22T05:49:03.139585+00:00",
        "meta_object_name": "YAOGAN-28",
        "meta_object_id": "2015-064A",
        "meta_epoch": "2025-12-21T19:52:03.652320",
        "meta_mean_motion": 15.24487616,
        "meta_eccentricity": 0.0012647,
        "meta_inclination": 97.2814,
        "meta_ra_of_asc_node": 133.3644,
        "meta_arg_of_pericenter": 97.138,
        "meta_mean_anomaly": 263.1296,
        "meta_ephemeris_type": 0,
        "meta_classification_type": "U",
        "meta_norad_cat_id": 41026,
        "meta_element_set_no": 999,
        "meta_rev_at_epoch": 56363,
        "meta_bstar": 0.00026355,
        "meta_mean_motion_dot": 6.421e-05,
        "meta_mean_motion_ddot": 0,
        "tle_line1": "1 41026U 15064A   25355.82782005  .00006421  00000+0  26355-3 0  9997",
        "tle_line2": "2 41026  97.2814 133.3644 0012647  97.1380 263.1296 15.24487616563634"
      },
      "geometry": {
        "type": "Point",
        "coordinates": [
          -30.448340008738533,
          64.8240132417477
        ]
      }
    },
    {
      "type": "Feature",
      "properties": {
        "norad_id": 41038,
        "name": "YAOGAN-29",
        "group": "resource",
        "lat": -51.42456994360944,
        "lon": -170.73842309602392,
        "alt_km": 626.9770144029017,
        "timestamp": "2025-12-22T05:49:03.139596+00:00",
        "meta_object_name": "YAOGAN-29",
        "meta_object_id": "2015-069A",
        "meta_epoch": "2025-12-21T20:40:37.081056",
        "meta_mean_motion": 14.82889952,
        "meta_eccentricity": 5.92e-05,
        "meta_inclination": 98.0207,
        "meta_ra_of_asc_node": 19.0623,
        "meta_arg_of_pericenter": 171.0936,
        "meta_mean_anomaly": 189.0288,
        "meta_ephemeris_type": 0,
        "meta_classification_type": "U",
        "meta_norad_cat_id": 41038,
        "meta_element_set_no": 999,
        "meta_rev_at_epoch": 54434,
        "meta_bstar": -2.9186e-05,
        "meta_mean_motion_dot": -2.91e-06,
        "meta_mean_motion_ddot": 0,
        "tle_line1": "1 41038U 15069A   25355.86154029 -.00000291  00000+0 -29186-4 0  9995",
        "tle_line2": "2 41038  98.0207  19.0623 0000592 171.0936 189.0288 14.82889952544340"
      },
      "geometry": {
        "type": "Point",
        "coordinates": [
          -170.73842309602392,
          -51.42456994360944
        ]
      }
    },
    {
      "type": "Feature",
      "properties": {
        "norad_id": 41167,
        "name": "KENT RIDGE 1",
        "group": "resource",
        "lat": 3.566133160476953,
        "lon": -52.848854531364864,
        "alt_km": 498.3809055831225,
        "timestamp": "2025-12-22T05:49:03.139607+00:00",
        "meta_object_name": "KENT RIDGE 1",
        "meta_object_id": "2015-077B",
        "meta_epoch": "2025-12-21T18:04:45.469920",
        "meta_mean_motion": 15.21699918,
        "meta_eccentricity": 0.0008539,
        "meta_inclination": 14.9785,
        "meta_ra_of_asc_node": 144.2556,
        "meta_arg_of_pericenter": 258.1757,
        "meta_mean_anomaly": 101.7607,
        "meta_ephemeris_type": 0,
        "meta_classification_type": "U",
        "meta_norad_cat_id": 41167,
        "meta_element_set_no": 999,
        "meta_rev_at_epoch": 55401,
        "meta_bstar": 0.0001344,
        "meta_mean_motion_dot": 3.888e-05,
        "meta_mean_motion_ddot": 0,
        "tle_line1": "1 41167U 15077B   25355.75330405  .00003888  00000+0  13440-3 0  9997",
        "tle_line2": "2 41167  14.9785 144.2556 0008539 258.1757 101.7607 15.21699918554010"
      },
      "geometry": {
        "type": "Point",
        "coordinates": [
          -52.848854531364864,
          3.566133160476953
        ]
      }
    },
    {
      "type": "Feature",
      "properties": {
        "norad_id": 41194,
        "name": "GAOFEN-4",
        "group": "resource",
        "lat": -0.09819818191312327,
        "lon": -75.94105904952725,
        "alt_km": 35790.06498838344,
        "timestamp": "2025-12-22T05:49:03.139620+00:00",
        "meta_object_name": "GAOFEN-4",
        "meta_object_id": "2015-083A",
        "meta_epoch": "2025-12-19T15:27:26.627616",
        "meta_mean_motion": 1.00273138,
        "meta_eccentricity": 0.0002945,
        "meta_inclination": 0.1878,
        "meta_ra_of_asc_node": 81.7841,
        "meta_arg_of_pericenter": 93.4275,
        "meta_mean_anomaly": 250.8523,
        "meta_ephemeris_type": 0,
        "meta_classification_type": "U",
        "meta_norad_cat_id": 41194,
        "meta_element_set_no": 999,
        "meta_rev_at_epoch": 3672,
        "meta_bstar": 0,
        "meta_mean_motion_dot": -3.11e-06,
        "meta_mean_motion_ddot": 0,
        "tle_line1": "1 41194U 15083A   25353.64405819 -.00000311  00000+0  00000+0 0  9995",
        "tle_line2": "2 41194   0.1878  81.7841 0002945  93.4275 250.8523  1.00273138 36722"
      },
      "geometry": {
        "type": "Point",
        "coordinates": [
          -75.94105904952725,
          -0.09819818191312327
        ]
      }
    },
    {
      "type": "Feature",
      "properties": {
        "norad_id": 41240,
        "name": "JASON-3",
        "group": "resource",
        "lat": 62.58294833890996,
        "lon": -163.15324851649817,
        "alt_km": 1309.3627076825505,
        "timestamp": "2025-12-22T05:49:03.139632+00:00",
        "meta_object_name": "JASON-3",
        "meta_object_id": "2016-002A",
        "meta_epoch": "2025-12-21T20:06:08.125056",
        "meta_mean_motion": 12.87626905,
        "meta_eccentricity": 0.0007242,
        "meta_inclination": 66.04,
        "meta_ra_of_asc_node": 138.6968,
        "meta_arg_of_pericenter": 271.3451,
        "meta_mean_anomaly": 88.6738,
        "meta_ephemeris_type": 0,
        "meta_classification_type": "U",
        "meta_norad_cat_id": 41240,
        "meta_element_set_no": 999,
        "meta_rev_at_epoch": 46441,
        "meta_bstar": 1.7067e-05,
        "meta_mean_motion_dot": -5.8e-07,
        "meta_mean_motion_ddot": 0,
        "tle_line1": "1 41240U 16002A   25355.83759404 -.00000058  00000+0  17067-4 0  9998",
        "tle_line2": "2 41240  66.0400 138.6968 0007242 271.3451  88.6738 12.87626905464413"
      },
      "geometry": {
        "type": "Point",
        "coordinates": [
          -163.15324851649817,
          62.58294833890996
        ]
      }
    },
    {
      "type": "Feature",
      "properties": {
        "norad_id": 41335,
        "name": "SENTINEL-3A",
        "group": "resource",
        "lat": 6.450904660382158,
        "lon": -117.89384742561441,
        "alt_km": 804.6040896879795,
        "timestamp": "2025-12-22T05:49:03.139643+00:00",
        "meta_object_name": "SENTINEL-3A",
        "meta_object_id": "2016-011A",
        "meta_epoch": "2025-12-21T18:54:32.234976",
        "meta_mean_motion": 14.26733951,
        "meta_eccentricity": 8.96e-05,
        "meta_inclination": 98.6302,
        "meta_ra_of_asc_node": 60.6741,
        "meta_arg_of_pericenter": 94.6296,
        "meta_mean_anomaly": 265.4987,
        "meta_ephemeris_type": 0,
        "meta_classification_type": "U",
        "meta_norad_cat_id": 41335,
        "meta_element_set_no": 999,
        "meta_rev_at_epoch": 51276,
        "meta_bstar": 6.3872e-05,
        "meta_mean_motion_dot": 1.11e-06,
        "meta_mean_motion_ddot": 0,
        "tle_line1": "1 41335U 16011A   25355.78787309  .00000111  00000+0  63872-4 0  9996",
        "tle_line2": "2 41335  98.6302  60.6741 0000896  94.6296 265.4987 14.26733951512762"
      },
      "geometry": {
        "type": "Point",
        "coordinates": [
          -117.89384742561441,
          6.450904660382158
        ]
      }
    },
    {
      "type": "Feature",
      "properties": {
        "norad_id": 41556,
        "name": "ZIYUAN 3-02 (ZY 3-02)",
        "group": "resource",
        "lat": -81.54393071883285,
        "lon": 131.2519210508882,
        "alt_km": 506.21683424814637,
        "timestamp": "2025-12-22T05:49:03.139653+00:00",
        "meta_object_name": "ZIYUAN 3-02 (ZY 3-02)",
        "meta_object_id": "2016-033A",
        "meta_epoch": "2025-12-21T20:43:21.296352",
        "meta_mean_motion": 15.21174129,
        "meta_eccentricity": 0.0011154,
        "meta_inclination": 97.4034,
        "meta_ra_of_asc_node": 69.8785,
        "meta_arg_of_pericenter": 211.9635,
        "meta_mean_anomaly": 148.0925,
        "meta_ephemeris_type": 0,
        "meta_classification_type": "U",
        "meta_norad_cat_id": 41556,
        "meta_element_set_no": 999,
        "meta_rev_at_epoch": 53102,
        "meta_bstar": 0.00025902,
        "meta_mean_motion_dot": 5.713e-05,
        "meta_mean_motion_ddot": 0,
        "tle_line1": "1 41556U 16033A   25355.86344093  .00005713  00000+0  25902-3 0  9997",
        "tle_line2": "2 41556  97.4034  69.8785 0011154 211.9635 148.0925 15.21174129531025"
      },
      "geometry": {
        "type": "Point",
        "coordinates": [
          131.2519210508882,
          -81.54393071883285
        ]
      }
    }
  ]
}